STARLINK-30716
1 57936U 23148B   25358.28047888 -.00002563  00000+0 -74413-4 0  9996
2 57936  53.1594  14.7009 0001262  96.9958 263.1186 15.30208388126876